OSCAR 7 (AO-7)          
1 07530U 74089B   26190.32897198 -.00000038  00000+0  49724-4 0  9999
2 07530 101.9902 203.8062 0012663  89.1895 342.2557 12.53698424363293
PHASE 3B (AO-10)        
1 14129U 83058B   26189.24859908  .00000202  00000+0  00000+0 0  9994
2 14129  25.9305 216.0918 6003826 121.4539 310.7883  2.05869766295926
UOSAT 2 (UO-11)         
1 14781U 84021B   26190.70623792  .00000917  00000+0  98723-4 0  9999
2 14781  97.8072 156.0317 0009168 106.4358 253.7868 14.90840274260488
LUSAT (LO-19)           
1 20442U 90005G   26190.01952797  .00000058  00000+0  37537-4 0  9995
2 20442  98.8846 212.4261 0012307 138.2781 221.9344 14.34129510905524
EYESAT A (AO-27)        
1 22825U 93061C   26190.16568541  .00000044  00000+0  33846-4 0  9997
2 22825  98.6870 257.5702 0009081  42.3993 317.7889 14.30948062710148
ITAMSAT (IO-26)         
1 22826U 93061D   26190.13853778  .00000039  00000+0  31711-4 0  9997
2 22826  98.6818 257.4628 0009314  26.5022 333.6635 14.31375523710450
RADIO ROSTO (RS15)      
1 23439U 94085A   26190.82038807 -.00000037  00000+0  15634-3 0  9993
2 23439  64.8161 266.6132 0156721 359.6983   0.3824 11.27583503298450
JAS-2 (FO-29)           
1 24278U 96046B   26190.04746765  .00000001  00000+0  35079-4 0  9993
2 24278  98.5224  35.9232 0350601  39.8653 322.7685 13.53275148476120
TECHSAT 1B (GO-32)      
1 25397U 98043D   26190.68260220  .00000032  00000+0  34171-4 0  9998
2 25397  99.0080 184.0097 0002038 123.5145 236.6227 14.24432637454532
ISS (ZARYA)             
1 25544U 98067A   26190.70194686  .00005376  00000+0  10580-3 0  9996
2 25544  51.6304 188.6620 0006668 275.8666  84.1562 15.48959671575242
PCSAT (NO-44)           
1 26931U 01043C   26190.71931582  .00000061  00000+0  53843-4 0  9996
2 26931  67.0489 185.9927 0005974 266.2577  93.7842 14.31963636293670
SAUDISAT 1C (SO-50)     
1 27607U 02058C   26190.07047632  .00000528  00000+0  80074-4 0  9991
2 27607  64.5518  61.2774 0074702 258.4036 100.8678 14.83090961267701
CUTE-1 (CO-55)          
1 27844U 03031E   26189.95445865  .00000197  00000+0  10410-3 0  9999
2 27844  98.6739 198.2397 0010684 118.8005 241.4249 14.24348882194778
CUBESAT XI-IV (CO-57)   
1 27848U 03031J   26189.46187375  .00000184  00000+0  99678-4 0  9998
2 27848  98.6772 197.4488 0010258 137.0463 223.1519 14.23632050194408
MOZHAETS 4 (RS22)       
1 27939U 03042A   26190.90199990  .00001018  00000+0  16487-3 0  9991
2 27939  98.3481  15.9040 0010788 190.2727 278.6487 14.73509643218898
CUBESAT XI-V            
1 28895U 05043F   26190.68856933  .00000955  00000+0  15777-3 0  9998
2 28895  98.3008 346.7863 0015063 131.3789 228.8716 14.72693331105061
CUTE-1.7+APD II (CO-65) 
1 32785U 08021C   26190.85228278  .00003026  00000+0  19206-3 0  9997
2 32785  97.8283 172.7468 0007395 321.0588  39.0107 15.09668455988611
SEEDS II (CO-66)        
1 32791U 08021J   26189.93516932  .00012773  00000+0  39659-3 0  9991
2 32791  97.7528 188.8830 0002351 170.9352 189.1933 15.33517693990629
YUBILEINY (RS30)        
1 32953U 08025A   26190.79327767  .00000103  00000+0  67330-3 0  9998
2 32953  82.5058 341.3769 0018533 261.5134  98.3845 12.43180747822508
KKS-1 (KISEKI)          
1 33499U 09002H   26190.78988830  .00000828  00000+0  10830-3 0  9990
2 33499  98.1179 113.5903 0006992 207.8239 152.2601 14.83181134939545
SWISSCUBE               
1 35932U 09051B   26190.54084366  .00000644  00000+0  13666-3 0  9999
2 35932  98.4016  98.8171 0007556 134.3316 225.8505 14.62524151892423
BEESAT-1                
1 35933U 09051C   26190.56195696  .00000529  00000+0  11590-3 0  9997
2 35933  98.3943  98.4270 0005799 144.7622 215.3963 14.61756321892450
ITUPSAT1                
1 35935U 09051E   26189.54478970  .00000560  00000+0  12544-3 0  9999
2 35935  98.4027  96.5634 0007610 162.4704 197.6760 14.60472478891858
XIWANG-1 (HOPE-1)       
1 36122U 09072B   26190.81561874 -.00000051  00000+0 -18461-4 0  9991
2 36122 100.4032 144.2872 0007385 176.8858 183.2302 13.16440330795982
O/OREOS (USA 219)       
1 37224U 10062C   26190.22848649  .00001439  00000+0  14125-3 0  9990
2 37224  71.9709  30.4075 0013636  16.8017 343.3602 14.93837463119936
JUGNU                   
1 37839U 11058B   26190.03109338  .00000383  00000+0  60431-4 0  9991
2 37839  19.9588 175.7154 0018376 318.1720  84.2013 14.13782334762121
SRMSAT                  
1 37841U 11058D   26190.62459529  .00000355  00000+0  48802-4 0  9996
2 37841  19.9720 283.6652 0011875  90.4763 307.0339 14.11580289760991
STRAND-1                
1 39090U 13009E   26190.75261338  .00000184  00000+0  76183-4 0  9998
2 39090  98.3931  10.4326 0009109 156.1916 203.9694 14.37176789700306
ZACUBE-1 (TSHEPISOSAT)  
1 39417U 13066B   26190.13615696  .00001581  00000+0  12533-3 0  9996
2 39417  97.8016 152.5825 0043657 174.6140 185.5562 15.01311101684029
GOMX-1                  
1 39430U 13066Q   26190.79220171  .00000980  00000+0  15327-3 0  9999
2 39430  97.6479  29.8286 0128782   5.5778 354.6828 14.69533953673233
